STARLINK-32643          
1 62233U 24231R   26068.65799090  .00026907  00000+0  91722-3 0  9992
2 62233  53.1595 206.9878 0000994  59.5811 300.5288 15.30202978 71930
HAWK-11A                
1 62382U 24247F   26068.51231358  .00009457  00000+0  34106-3 0  9991
2 62382  44.9941 114.3328 0005466 327.3713  32.6832 15.28849427 67741
